STARLINK-32359          
1 61957U 24209U   26068.47922661  .00014063  00000+0  48615-3 0  9994
2 61957  53.1574 143.4521 0001179 110.0444 250.0684 15.30190850 74881
AL MUNTHER              
1 63240U 25052AG  26068.64540749  .00017933  00000+0  65015-3 0  9992
2 63240  97.4001 323.9152 0008027 130.7043 229.4895 15.28381521 54798
